start=new Date('2022-06-11T00:00:00.000Z').valueOf();
sats=[{"DECAY_DATE":null,"EPOCH":"2022-06-10T21:25:51.575520","REV_AT_EPOCH":"6847","TIME_SYSTEM":"UTC","CENTER_NAME":"EARTH","RCS_SIZE":"LARGE","OBJECT_ID":"2021-024BE","MEAN_MOTION":"15.06397932","RA_OF_ASC_NODE":"351.9087","NORAD_CAT_ID":"48029","BSTAR":"0.00014318000000","LAUNCH_DATE":"2021-03-24","PERIOD":"95.592","ECCENTRICITY":"0.00016450","TLE_LINE1":"1 48029U 21024BE  22161.89295805  .00001852  00000-0  14318-3 0  9996","OBJECT_NAME":"STARLINK-2299","COUNTRY_CODE":"US","OBJECT_TYPE":"PAYLOAD","EPHEMERIS_TYPE":"0","SEMIMAJOR_AXIS":"6925.355","INCLINATION":"53.0542","MEAN_ELEMENT_THEORY":"SGP4","FILE":"3490466","ELEMENT_SET_NO":"999","REF_FRAME":"TEME","PERIAPSIS":"546.081","TLE_LINE2":"2 48029  53.0542 351.9087 0001645  53.0909 307.0231 15.06397932 68475","MEAN_MOTION_DOT":"0.00001852","APOAPSIS":"548.359","MEAN_MOTION_DDOT":"0.0000000000000","MEAN_ANOMALY":"307.0231","SITE":"AFETR","GP_ID":"205862459","CLASSIFICATION_TYPE":"U","ARG_OF_PERICENTER":"53.0909"},{"MEAN_ELEMENT_THEORY":"SGP4","INCLINATION":"53.0558","EPHEMERIS_TYPE":"0","SEMIMAJOR_AXIS":"6925.369","TLE_LINE2":"2 48030  53.0558 357.0661 0001751  67.5427 292.5747 15.06393486 68337","MEAN_MOTION_DOT":"0.00001769","REF_FRAME":"TEME","PERIAPSIS":"546.021","FILE":"3490466","ELEMENT_SET_NO":"999","MEAN_ANOMALY":"292.5747","SITE":"AFETR","MEAN_MOTION_DDOT":"0.0000000000000","APOAPSIS":"548.446","ARG_OF_PERICENTER":"67.5427","CLASSIFICATION_TYPE":"U","GP_ID":"205863709","RCS_SIZE":"LARGE","REV_AT_EPOCH":"6833","TIME_SYSTEM":"UTC","CENTER_NAME":"EARTH","DECAY_DATE":null,"EPOCH":"2022-06-10T20:29:28.213728","RA_OF_ASC_NODE":"357.0661","MEAN_MOTION":"15.06393486","OBJECT_ID":"2021-024BF","LAUNCH_DATE":"2021-03-24","PERIOD":"95.593","BSTAR":"0.00013766000000","NORAD_CAT_ID":"48030","OBJECT_TYPE":"PAYLOAD","COUNTRY_CODE":"US","TLE_LINE1":"1 48030U 21024BF  22161.85379877  .00001769  00000-0  13766-3 0  9999","OBJECT_NAME":"STARLINK-2268","ECCENTRICITY":"0.00017510"},{"LAUNCH_DATE":"2021-03-24","PERIOD":"95.592","BSTAR":"0.00007501400000","NORAD_CAT_ID":"48031","OBJECT_TYPE":"PAYLOAD","COUNTRY_CODE":"US","TLE_LINE1":"1 48031U 21024BG  22161.49394970  .00000836  00000-0  75014-4 0  9990","ECCENTRICITY":"0.00017500","OBJECT_NAME":"STARLINK-2267","RCS_SIZE":"LARGE","REV_AT_EPOCH":"6989","CENTER_NAME":"EARTH","TIME_SYSTEM":"UTC","EPOCH":"2022-06-10T11:51:17.254080","DECAY_DATE":null,"RA_OF_ASC_NODE":"243.6852","MEAN_MOTION":"15.06400094","OBJECT_ID":"2021-024BG","MEAN_ANOMALY":"308.4257","SITE":"AFETR","APOAPSIS":"548.425","MEAN_MOTION_DDOT":"0.0000000000000","ARG_OF_PERICENTER":"51.6889","CLASSIFICATION_TYPE":"U","GP_ID":"205823226","MEAN_ELEMENT_THEORY":"SGP4","INCLINATION":"53.0566","EPHEMERIS_TYPE":"0","SEMIMAJOR_AXIS":"6925.348","TLE_LINE2":"2 48031  53.0566 243.6852 0001750  51.6889 308.4257 15.06400094 69893","MEAN_MOTION_DOT":"0.00000836","PERIAPSIS":"546.001","REF_FRAME":"TEME","FILE":"3489795","ELEMENT_SET_NO":"999"},{"INCLINATION":"53.0569","MEAN_ELEMENT_THEORY":"SGP4","EPHEMERIS_TYPE":"0","SEMIMAJOR_AXIS":"6925.362","TLE_LINE2":"2 48033  53.0569 352.2488 0001344  76.4982 283.6157 15.06395603 67933","MEAN_MOTION_DOT":"0.00000399","PERIAPSIS":"546.296","REF_FRAME":"TEME","FILE":"3490185","ELEMENT_SET_NO":"999","MEAN_ANOMALY":"283.6157","SITE":"AFETR","APOAPSIS":"548.158","MEAN_MOTION_DDOT":"0.0000000000000","ARG_OF_PERICENTER":"76.4982","CLASSIFICATION_TYPE":"U","GP_ID":"205835188","RCS_SIZE":"LARGE","REV_AT_EPOCH":"6793","CENTER_NAME":"EARTH","TIME_SYSTEM":"UTC","EPOCH":"2022-06-10T19:34:23.641824","DECAY_DATE":null,"RA_OF_ASC_NODE":"352.2488","MEAN_MOTION":"15.06395603","OBJECT_ID":"2021-024BJ","LAUNCH_DATE":"2021-03-24","PERIOD":"95.592","BSTAR":"0.00004570900000","NORAD_CAT_ID":"48033","OBJECT_TYPE":"PAYLOAD","COUNTRY_CODE":"US","TLE_LINE1":"1 48033U 21024BJ  22161.81555141  .00000399  00000-0  45709-4 0  9999","OBJECT_NAME":"STARLINK-2286","ECCENTRICITY":"0.00013440"},{"MEAN_ANOMALY":"301.2163","SITE":"AFETR","MEAN_MOTION_DDOT":"0.0000000000000","APOAPSIS":"548.415","ARG_OF_PERICENTER":"58.8994","CLASSIFICATION_TYPE":"U","GP_ID":"205862958","MEAN_ELEMENT_THEORY":"SGP4","INCLINATION":"53.0564","SEMIMAJOR_AXIS":"6925.362","EPHEMERIS_TYPE":"0","MEAN_MOTION_DOT":"0.00000037","TLE_LINE2":"2 48034  53.0564 352.1656 0001715  58.8994 301.2163 15.06395651 68460","REF_FRAME":"TEME","PERIAPSIS":"546.039","ELEMENT_SET_NO":"999","FILE":"3490466","PERIOD":"95.592","LAUNCH_DATE":"2021-03-24","BSTAR":"0.00002137500000","NORAD_CAT_ID":"48034","OBJECT_TYPE":"PAYLOAD","COUNTRY_CODE":"US","ECCENTRICITY":"0.00017150","TLE_LINE1":"1 48034U 21024BK  22161.83397954  .00000037  00000-0  21375-4 0  9990","OBJECT_NAME":"STARLINK-2288","RCS_SIZE":"LARGE","REV_AT_EPOCH":"6846","CENTER_NAME":"EARTH","TIME_SYSTEM":"UTC","DECAY_DATE":null,"EPOCH":"2022-06-10T20:00:55.832256","RA_OF_ASC_NODE":"352.1656","MEAN_MOTION":"15.06395651","OBJECT_ID":"2021-024BK"},{"MEAN_ELEMENT_THEORY":"SGP4","INCLINATION":"53.0570","SEMIMAJOR_AXIS":"6925.305","EPHEMERIS_TYPE":"0","ELEMENT_SET_NO":"999","FILE":"3490185","MEAN_MOTION_DOT":"-0.00004422","TLE_LINE2":"2 48036  53.0570 352.1407 0001531  68.2186 291.8966 15.06414316 67933","REF_FRAME":"TEME","PERIAPSIS":"546.109","MEAN_ANOMALY":"291.8966","SITE":"AFETR","MEAN_MOTION_DDOT":"0.0000000000000","APOAPSIS":"548.230","CLASSIFICATION_TYPE":"U","GP_ID":"205835196","ARG_OF_PERICENTER":"68.2186","REV_AT_EPOCH":"6793","CENTER_NAME":"EARTH","TIME_SYSTEM":"UTC","DECAY_DATE":null,"EPOCH":"2022-06-10T20:11:33.144576","RCS_SIZE":"LARGE","MEAN_MOTION":"15.06414316","OBJECT_ID":"2021-024BM","RA_OF_ASC_NODE":"352.1407","NORAD_CAT_ID":"48036","PERIOD":"95.591","LAUNCH_DATE":"2021-03-24","BSTAR":"-0.00027806000000","COUNTRY_CODE":"US","TLE_LINE1":"1 48036U 21024BM  22161.84135584 -.00004422  00000-0 -27806-3 0  9990","ECCENTRICITY":"0.00015310","OBJECT_NAME":"STARLINK-2295","OBJECT_TYPE":"PAYLOAD"},{"ELEMENT_SET_NO":"999","FILE":"3490094","PERIAPSIS":"547.013","REF_FRAME":"TEME","MEAN_MOTION_DOT":"0.00047193","TLE_LINE2":"2 48092  53.0549 117.3865 0001490  14.9992 345.1041 15.06128765 66898","SEMIMAJOR_AXIS":"6926.180","EPHEMERIS_TYPE":"0","INCLINATION":"53.0549","MEAN_ELEMENT_THEORY":"SGP4","GP_ID":"205832174","CLASSIFICATION_TYPE":"U","ARG_OF_PERICENTER":"14.9992","MEAN_MOTION_DDOT":"0.0000000000000","APOAPSIS":"549.077","MEAN_ANOMALY":"345.1041","SITE":"AFETR","OBJECT_ID":"2021-027A","MEAN_MOTION":"15.06128765","RA_OF_ASC_NODE":"117.3865","EPOCH":"2022-06-10T20:18:50.148864","DECAY_DATE":null,"REV_AT_EPOCH":"6689","CENTER_NAME":"EARTH","TIME_SYSTEM":"UTC","RCS_SIZE":"LARGE","TLE_LINE1":"1 48092U 21027A   22161.84641376  .00047193  00000-0  31892-2 0  9995","OBJECT_NAME":"STARLINK-2048","ECCENTRICITY":"0.00014900","COUNTRY_CODE":"US","OBJECT_TYPE":"PAYLOAD","NORAD_CAT_ID":"48092","BSTAR":"0.00318920000000","PERIOD":"95.609","LAUNCH_DATE":"2021-04-07"},{"TLE_LINE1":"1 48093U 21027B   22161.67584724  .00105493  00000-0  73014-2 0  9990","ECCENTRICITY":"0.00019100","OBJECT_NAME":"STARLINK-2404","COUNTRY_CODE":"US","OBJECT_TYPE":"PAYLOAD","NORAD_CAT_ID":"48093","BSTAR":"0.00730140000000","PERIOD":"95.693","LAUNCH_DATE":"2021-04-07","OBJECT_ID":"2021-027B","MEAN_MOTION":"15.04808537","RA_OF_ASC_NODE":"183.0701","DECAY_DATE":null,"EPOCH":"2022-06-10T16:13:13.201536","REV_AT_EPOCH":"6636","TIME_SYSTEM":"UTC","CENTER_NAME":"EARTH","RCS_SIZE":"LARGE","GP_ID":"205862466","CLASSIFICATION_TYPE":"U","ARG_OF_PERICENTER":"51.2142","MEAN_MOTION_DDOT":"0.0000000000000","APOAPSIS":"553.419","SITE":"AFETR","MEAN_ANOMALY":"308.9016","ELEMENT_SET_NO":"999","FILE":"3490466","REF_FRAME":"TEME","PERIAPSIS":"550.772","MEAN_MOTION_DOT":"0.00105493","TLE_LINE2":"2 48093  53.0536 183.0701 0001910  51.2142 308.9016 15.04808537 66363","SEMIMAJOR_AXIS":"6930.230","EPHEMERIS_TYPE":"0","MEAN_ELEMENT_THEORY":"SGP4","INCLINATION":"53.0536"},{"RA_OF_ASC_NODE":"193.6956","MEAN_MOTION":"15.06396628","OBJECT_ID":"2021-027C","RCS_SIZE":"LARGE","REV_AT_EPOCH":"6580","CENTER_NAME":"EARTH","TIME_SYSTEM":"UTC","EPOCH":"2022-06-10T11:52:38.121024","DECAY_DATE":null,"OBJECT_TYPE":"PAYLOAD","COUNTRY_CODE":"US","OBJECT_NAME":"STARLINK-2412","TLE_LINE1":"1 48094U 21027C   22161.49488566 -.00000835  00000-0 -37141-4 0  9997","ECCENTRICITY":"0.00015950","LAUNCH_DATE":"2021-04-07","PERIOD":"95.592","BSTAR":"-0.00003714100000","NORAD_CAT_ID":"48094","TLE_LINE2":"2 48094  53.0551 193.6956 0001595  58.2253 301.8891 15.06396628 65805","MEAN_MOTION_DOT":"-0.00000835","PERIAPSIS":"546.119","REF_FRAME":"TEME","FILE":"3490065","ELEMENT_SET_NO":"999","MEAN_ELEMENT_THEORY":"SGP4","INCLINATION":"53.0551","EPHEMERIS_TYPE":"0","SEMIMAJOR_AXIS":"6925.359","ARG_OF_PERICENTER":"58.2253","CLASSIFICATION_TYPE":"U","GP_ID":"205832261","SITE":"AFETR","MEAN_ANOMALY":"301.8891","MEAN_MOTION_DDOT":"0.0000000000000","APOAPSIS":"548.328"},{"COUNTRY_CODE":"US","TLE_LINE1":"1 48095U 21027D   22161.36956420 -.00000739  00000-0 -30746-4 0  9990","OBJECT_NAME":"STARLINK-2414","ECCENTRICITY":"0.00015610","OBJECT_TYPE":"PAYLOAD","NORAD_CAT_ID":"48095","PERIOD":"95.593","LAUNCH_DATE":"2021-04-07","BSTAR":"-0.00003074600000","MEAN_MOTION":"15.06393259","OBJECT_ID":"2021-027D","RA_OF_ASC_NODE":"194.2474","REV_AT_EPOCH":"6578","CENTER_NAME":"EARTH","TIME_SYSTEM":"UTC","DECAY_DATE":null,"EPOCH":"2022-06-10T08:52:10.346880","RCS_SIZE":"MEDIUM","CLASSIFICATION_TYPE":"U","GP_ID":"205831764","ARG_OF_PERICENTER":"55.2813","SITE":"AFETR","MEAN_ANOMALY":"304.8323","MEAN_MOTION_DDOT":"0.0000000000000","APOAPSIS":"548.315","ELEMENT_SET_NO":"999","FILE":"3490065","MEAN_MOTION_DOT":"-0.00000739","TLE_LINE2":"2 48095  53.0534 194.2474 0001561  55.2813 304.8323 15.06393259 65788","REF_FRAME":"TEME","PERIAPSIS":"546.153","INCLINATION":"53.0534","MEAN_ELEMENT_THEORY":"SGP4","SEMIMAJOR_AXIS":"6925.369","EPHEMERIS_TYPE":"0"}];
